CCSDS_OMM_VERS = 2.0
CREATION_DATE  = 
ORIGINATOR     = 

OBJECT_NAME    = SHIJIAN-16 (SJ-16)
OBJECT_ID      = 2013-057A
CENTER_NAME    = EARTH
REF_FRAME      = TEME
TIME_SYSTEM    = UTC
MEAN_ELEMENT_THEORY = SGP/SGP4

EPOCH          = 2025-11-24T05:29:25.829952
MEAN_MOTION    = 14.91907881
ECCENTRICITY   = .0016921
INCLINATION    = 74.9743
RA_OF_ASC_NODE = 24.6775
ARG_OF_PERICENTER = 3.9348
MEAN_ANOMALY   = 356.1970

EPHEMERIS_TYPE = 0
CLASSIFICATION_TYPE = U
NORAD_CAT_ID   = 39358
ELEMENT_SET_NO = 999
REV_AT_EPOCH   = 65577
BSTAR          = .21584E-3
MEAN_MOTION_DOT = .216E-4
MEAN_MOTION_DDOT = 0

CCSDS_OMM_VERS = 2.0
CREATION_DATE  = 
ORIGINATOR     = 

OBJECT_NAME    = SL-4 R/B
OBJECT_ID      = 2014-021B
CENTER_NAME    = EARTH
REF_FRAME      = TEME
TIME_SYSTEM    = UTC
MEAN_ELEMENT_THEORY = SGP/SGP4

EPOCH          = 2025-11-23T16:29:03.336288
MEAN_MOTION    = 15.35978715
ECCENTRICITY   = .0103264
INCLINATION    = 51.6051
RA_OF_ASC_NODE = 133.1410
ARG_OF_PERICENTER = 77.7366
MEAN_ANOMALY   = 283.5157

EPHEMERIS_TYPE = 0
CLASSIFICATION_TYPE = U
NORAD_CAT_ID   = 39679
ELEMENT_SET_NO = 999
REV_AT_EPOCH   = 63996
BSTAR          = .3265E-3
MEAN_MOTION_DOT = .13453E-3
MEAN_MOTION_DDOT = 0

CCSDS_OMM_VERS = 2.0
CREATION_DATE  = 
ORIGINATOR     = 

OBJECT_NAME    = ALOS-2
OBJECT_ID      = 2014-029A
CENTER_NAME    = EARTH
REF_FRAME      = TEME
TIME_SYSTEM    = UTC
MEAN_ELEMENT_THEORY = SGP/SGP4

EPOCH          = 2025-11-24T05:04:45.828192
MEAN_MOTION    = 14.79470268
ECCENTRICITY   = .0001284
INCLINATION    = 97.9241
RA_OF_ASC_NODE = 63.3212
ARG_OF_PERICENTER = 98.6373
MEAN_ANOMALY   = 261.4984

EPHEMERIS_TYPE = 0
CLASSIFICATION_TYPE = U
NORAD_CAT_ID   = 39766
ELEMENT_SET_NO = 999
REV_AT_EPOCH   = 62127
BSTAR          = -.81853E-4
MEAN_MOTION_DOT = -.663E-5
MEAN_MOTION_DDOT = 0

CCSDS_OMM_VERS = 2.0
CREATION_DATE  = 
ORIGINATOR     = 

OBJECT_NAME    = YAOGAN-29
OBJECT_ID      = 2015-069A
CENTER_NAME    = EARTH
REF_FRAME      = TEME
TIME_SYSTEM    = UTC
MEAN_ELEMENT_THEORY = SGP/SGP4

EPOCH          = 2025-11-24T04:41:47.431104
MEAN_MOTION    = 14.82852430
ECCENTRICITY   = .0001434
INCLINATION    = 98.0236
RA_OF_ASC_NODE = 351.3063
ARG_OF_PERICENTER = 27.3912
MEAN_ANOMALY   = 332.7377

EPHEMERIS_TYPE = 0
CLASSIFICATION_TYPE = U
NORAD_CAT_ID   = 41038
ELEMENT_SET_NO = 999
REV_AT_EPOCH   = 54024
BSTAR          = .74798E-4
MEAN_MOTION_DOT = .551E-5
MEAN_MOTION_DDOT = 0

CCSDS_OMM_VERS = 2.0
CREATION_DATE  = 
ORIGINATOR     = 

OBJECT_NAME    = ASTRO-H (HITOMI)
OBJECT_ID      = 2016-012A
CENTER_NAME    = EARTH
REF_FRAME      = TEME
TIME_SYSTEM    = UTC
MEAN_ELEMENT_THEORY = SGP/SGP4

EPOCH          = 2025-11-24T00:57:38.832192
MEAN_MOTION    = 15.09182352
ECCENTRICITY   = .0009671
INCLINATION    = 31.0010
RA_OF_ASC_NODE = 317.9079
ARG_OF_PERICENTER = 348.5737
MEAN_ANOMALY   = 11.4680

EPHEMERIS_TYPE = 0
CLASSIFICATION_TYPE = U
NORAD_CAT_ID   = 41337
ELEMENT_SET_NO = 999
REV_AT_EPOCH   = 53625
BSTAR          = .21508E-3
MEAN_MOTION_DOT = .3598E-4
MEAN_MOTION_DDOT = 0

CCSDS_OMM_VERS = 2.0
CREATION_DATE  = 
ORIGINATOR     = 

OBJECT_NAME    = HXMT (HUIYAN)
OBJECT_ID      = 2017-034A
CENTER_NAME    = EARTH
REF_FRAME      = TEME
TIME_SYSTEM    = UTC
MEAN_ELEMENT_THEORY = SGP/SGP4

EPOCH          = 2025-11-24T03:30:49.473216
MEAN_MOTION    = 15.15998219
ECCENTRICITY   = .0033976
INCLINATION    = 43.0140
RA_OF_ASC_NODE = 242.7899
ARG_OF_PERICENTER = 286.9715
MEAN_ANOMALY   = 72.7410

EPHEMERIS_TYPE = 0
CLASSIFICATION_TYPE = U
NORAD_CAT_ID   = 42758
ELEMENT_SET_NO = 999
REV_AT_EPOCH   = 46651
BSTAR          = .37306E-3
MEAN_MOTION_DOT = .7168E-4
MEAN_MOTION_DDOT = 0

CCSDS_OMM_VERS = 2.0
CREATION_DATE  = 
ORIGINATOR     = 

OBJECT_NAME    = CZ-2C R/B
OBJECT_ID      = 2018-054D
CENTER_NAME    = EARTH
REF_FRAME      = TEME
TIME_SYSTEM    = UTC
MEAN_ELEMENT_THEORY = SGP/SGP4

EPOCH          = 2025-11-23T23:58:11.048736
MEAN_MOTION    = 15.69837663
ECCENTRICITY   = .0021637
INCLINATION    = 35.1366
RA_OF_ASC_NODE = 307.5674
ARG_OF_PERICENTER = 313.6752
MEAN_ANOMALY   = 46.2187

EPHEMERIS_TYPE = 0
CLASSIFICATION_TYPE = U
NORAD_CAT_ID   = 43521
ELEMENT_SET_NO = 999
REV_AT_EPOCH   = 41210
BSTAR          = .77166E-3
MEAN_MOTION_DOT = .97946E-3
MEAN_MOTION_DDOT = 0

CCSDS_OMM_VERS = 2.0
CREATION_DATE  = 
ORIGINATOR     = 

OBJECT_NAME    = SAOCOM 1A
OBJECT_ID      = 2018-076A
CENTER_NAME    = EARTH
REF_FRAME      = TEME
TIME_SYSTEM    = UTC
MEAN_ELEMENT_THEORY = SGP/SGP4

EPOCH          = 2025-11-24T04:10:34.089888
MEAN_MOTION    = 14.82147096
ECCENTRICITY   = .0001567
INCLINATION    = 97.8859
RA_OF_ASC_NODE = 152.8659
ARG_OF_PERICENTER = 90.0782
MEAN_ANOMALY   = 270.0611

EPHEMERIS_TYPE = 0
CLASSIFICATION_TYPE = U
NORAD_CAT_ID   = 43641
ELEMENT_SET_NO = 999
REV_AT_EPOCH   = 38573
BSTAR          = .79888E-4
MEAN_MOTION_DOT = .584E-5
MEAN_MOTION_DDOT = 0

CCSDS_OMM_VERS = 2.0
CREATION_DATE  = 
ORIGINATOR     = 

OBJECT_NAME    = H-2A R/B
OBJECT_ID      = 2018-084L
CENTER_NAME    = EARTH
REF_FRAME      = TEME
TIME_SYSTEM    = UTC
MEAN_ELEMENT_THEORY = SGP/SGP4

EPOCH          = 2025-11-24T01:43:30.686016
MEAN_MOTION    = 15.36456715
ECCENTRICITY   = .0028781
INCLINATION    = 98.8784
RA_OF_ASC_NODE = 158.2962
ARG_OF_PERICENTER = 30.0207
MEAN_ANOMALY   = 330.2675

EPHEMERIS_TYPE = 0
CLASSIFICATION_TYPE = U
NORAD_CAT_ID   = 43682
ELEMENT_SET_NO = 999
REV_AT_EPOCH   = 38953
BSTAR          = .56642E-3
MEAN_MOTION_DOT = .2035E-3
MEAN_MOTION_DDOT = 0

CCSDS_OMM_VERS = 2.0
CREATION_DATE  = 
ORIGINATOR     = 

OBJECT_NAME    = SAOCOM 1B
OBJECT_ID      = 2020-059A
CENTER_NAME    = EARTH
REF_FRAME      = TEME
TIME_SYSTEM    = UTC
MEAN_ELEMENT_THEORY = SGP/SGP4

EPOCH          = 2025-11-24T03:18:22.648896
MEAN_MOTION    = 14.82155836
ECCENTRICITY   = .000135
INCLINATION    = 97.8847
RA_OF_ASC_NODE = 151.9317
ARG_OF_PERICENTER = 89.9508
MEAN_ANOMALY   = 270.1860

EPHEMERIS_TYPE = 0
CLASSIFICATION_TYPE = U
NORAD_CAT_ID   = 46265
ELEMENT_SET_NO = 999
REV_AT_EPOCH   = 28311
BSTAR          = .77695E-4
MEAN_MOTION_DOT = .566E-5
MEAN_MOTION_DDOT = 0

CCSDS_OMM_VERS = 2.0
CREATION_DATE  = 
ORIGINATOR     = 

OBJECT_NAME    = CSS (TIANHE)
OBJECT_ID      = 2021-035A
CENTER_NAME    = EARTH
REF_FRAME      = TEME
TIME_SYSTEM    = UTC
MEAN_ELEMENT_THEORY = SGP/SGP4

EPOCH          = 2025-11-23T21:01:58.191744
MEAN_MOTION    = 15.58163060
ECCENTRICITY   = .0010566
INCLINATION    = 41.4649
RA_OF_ASC_NODE = 131.1321
ARG_OF_PERICENTER = 257.4629
MEAN_ANOMALY   = 102.5027

EPHEMERIS_TYPE = 0
CLASSIFICATION_TYPE = U
NORAD_CAT_ID   = 48274
ELEMENT_SET_NO = 999
REV_AT_EPOCH   = 26108
BSTAR          = .27798E-3
MEAN_MOTION_DOT = .2134E-3
MEAN_MOTION_DDOT = 0

CCSDS_OMM_VERS = 2.0
CREATION_DATE  = 
ORIGINATOR     = 

OBJECT_NAME    = COSMOS 2550
OBJECT_ID      = 2021-056A
CENTER_NAME    = EARTH
REF_FRAME      = TEME
TIME_SYSTEM    = UTC
MEAN_ELEMENT_THEORY = SGP/SGP4

EPOCH          = 2025-11-22T21:40:11.995968
MEAN_MOTION    = 15.33759073
ECCENTRICITY   = .00082757
INCLINATION    = 67.1436
RA_OF_ASC_NODE = 3.9363
ARG_OF_PERICENTER = 268.0359
MEAN_ANOMALY   = 91.9848

EPHEMERIS_TYPE = 0
CLASSIFICATION_TYPE = U
NORAD_CAT_ID   = 48865
ELEMENT_SET_NO = 999
REV_AT_EPOCH   = 24708
BSTAR          = .6151238E-5
MEAN_MOTION_DOT = .1E-6
MEAN_MOTION_DDOT = 0

