SHIJIAN-16 (SJ-16)      
1 39358U 13057A   25328.22877118  .00002160  00000+0  21584-3 0  9991
2 39358  74.9743  24.6775 0016921   3.9348 356.1970 14.91907881655770
SL-4 R/B                
1 39679U 14021B   25327.68684417  .00013453  00000+0  32650-3 0  9999
2 39679  51.6051 133.1410 0103264  77.7366 283.5157 15.35978715639964
ALOS-2                  
1 39766U 14029A   25328.21164153 -.00000663  00000+0 -81853-4 0  9995
2 39766  97.9241  63.3212 0001284  98.6373 261.4984 14.79470268621273
YAOGAN-29               
1 41038U 15069A   25328.19568786  .00000551  00000+0  74798-4 0  9996
2 41038  98.0236 351.3063 0001434  27.3912 332.7377 14.82852430540247
ASTRO-H (HITOMI)        
1 41337U 16012A   25328.04003278  .00003598  00000+0  21508-3 0  9995
2 41337  31.0010 317.9079 0009671 348.5737  11.4680 15.09182352536258
HXMT (HUIYAN)           
1 42758U 17034A   25328.14640594  .00007168  00000+0  37306-3 0  9997
2 42758  43.0140 242.7899 0033976 286.9715  72.7410 15.15998219466510
CZ-2C R/B               
1 43521U 18054D   25327.99873899  .00097946  00000+0  77166-3 0  9998
2 43521  35.1366 307.5674 0021637 313.6752  46.2187 15.69837663412109
SAOCOM 1A               
1 43641U 18076A   25328.17400567  .00000584  00000+0  79888-4 0  9990
2 43641  97.8859 152.8659 0001567  90.0782 270.0611 14.82147096385732
H-2A R/B                
1 43682U 18084L   25328.07188294  .00020350  00000+0  56642-3 0  9998
2 43682  98.8784 158.2962 0028781  30.0207 330.2675 15.36456715389537
SAOCOM 1B               
1 46265U 20059A   25328.13776214  .00000566  00000+0  77695-4 0  9994
2 46265  97.8847 151.9317 0001350  89.9508 270.1860 14.82155836283115
CSS (TIANHE)            
1 48274U 21035A   25327.87636796  .00021340  00000+0  27798-3 0  9992
2 48274  41.4649 131.1321 0010566 257.4629 102.5027 15.58163060261089
COSMOS 2550             
1 48865U 21056A   25326.90291662  .00000010  00000+0  61512-5 0  9998
2 48865  67.1436   3.9363 0008275 268.0359  91.9848 15.33759073247082
